[{"OBJECT_NAME":"FLOCK 4G-25","OBJECT_ID":"2025-009AP","EPOCH":"2026-03-09T17:53:50.680608","MEAN_MOTION":15.27424196,"ECCENTRICITY":8.276e-5,"INCLINATION":97.4049,"RA_OF_ASC_NODE":151.4141,"ARG_OF_PERICENTER":316.3151,"MEAN_ANOMALY":43.8023,"EPHEMERIS_TYPE":0,"CLASSIFICATION_TYPE":"U","NORAD_CAT_ID":62646,"ELEMENT_SET_NO":999,"REV_AT_EPOCH":6373,"BSTAR":0.00038902475,"MEAN_MOTION_DOT":0.00010373,"MEAN_MOTION_DDOT":0},{"OBJECT_NAME":"COSMOS 252 DEB","OBJECT_ID":"1968-097BM","EPOCH":"2026-03-09T19:23:01.251168","MEAN_MOTION":14.84266968,"ECCENTRICITY":0.01906429,"INCLINATION":62.1994,"RA_OF_ASC_NODE":322.7421,"ARG_OF_PERICENTER":219.9576,"MEAN_ANOMALY":138.735,"EPHEMERIS_TYPE":0,"CLASSIFICATION_TYPE":"U","NORAD_CAT_ID":3900,"ELEMENT_SET_NO":999,"REV_AT_EPOCH":87477,"BSTAR":0.00094776544,"MEAN_MOTION_DOT":0.00010849,"MEAN_MOTION_DDOT":0}]
